start=new Date('2022-02-17T00:00:00.000Z').valueOf();
sats=[{"OBJECT_TYPE":"PAYLOAD","REF_FRAME":"TEME","EPOCH":"2022-02-16T22:49:58.159776","ELEMENT_SET_NO":"999","APOAPSIS":"548.311","DECAY_DATE":null,"MEAN_ANOMALY":"283.7537","PERIOD":"95.592","CLASSIFICATION_TYPE":"U","TLE_LINE1":"1 48131U 21027AR  22047.95136759  .00002379  00000-0  17856-3 0  9990","MEAN_MOTION_DDOT":"0.0000000000000","PERIAPSIS":"546.093","MEAN_MOTION_DOT":"0.00002379","REV_AT_EPOCH":"4936","RCS_SIZE":"LARGE","MEAN_MOTION":"15.06403708","CENTER_NAME":"EARTH","EPHEMERIS_TYPE":"0","GP_ID":"196130955","LAUNCH_DATE":"2021-04-07","TIME_SYSTEM":"UTC","TLE_LINE2":"2 48131  53.0548 323.4020 0001601  76.3630 283.7537 15.06403708 49362","INCLINATION":"53.0548","ARG_OF_PERICENTER":"76.3630","OBJECT_ID":"2021-027AR","RA_OF_ASC_NODE":"323.4020","MEAN_ELEMENT_THEORY":"SGP4","SEMIMAJOR_AXIS":"6925.337","FILE":"3302660","BSTAR":"0.00017856000000","OBJECT_NAME":"STARLINK-2473","ECCENTRICITY":"0.00016010","NORAD_CAT_ID":"48131","COUNTRY_CODE":"US","SITE":"AFETR"},{"TLE_LINE2":"2 48132  53.0550 345.2907 0001569  66.0108 294.1046 15.06398057 49014","LAUNCH_DATE":"2021-04-07","TIME_SYSTEM":"UTC","INCLINATION":"53.0550","GP_ID":"196092855","SEMIMAJOR_AXIS":"6925.355","FILE":"3301890","BSTAR":"0.00068498000000","ARG_OF_PERICENTER":"66.0108","OBJECT_ID":"2021-027AS","MEAN_ELEMENT_THEORY":"SGP4","RA_OF_ASC_NODE":"345.2907","NORAD_CAT_ID":"48132","ECCENTRICITY":"0.00015690","SITE":"AFETR","COUNTRY_CODE":"US","OBJECT_NAME":"STARLINK-2474","ELEMENT_SET_NO":"999","DECAY_DATE":null,"APOAPSIS":"548.306","REF_FRAME":"TEME","OBJECT_TYPE":"PAYLOAD","EPOCH":"2022-02-16T12:47:31.562880","CLASSIFICATION_TYPE":"U","PERIOD":"95.592","MEAN_ANOMALY":"294.1046","MEAN_MOTION_DDOT":"0.0000000000000","MEAN_MOTION_DOT":"0.00009935","PERIAPSIS":"546.133","TLE_LINE1":"1 48132U 21027AS  22047.53300420  .00009935  00000-0  68498-3 0  9996","CENTER_NAME":"EARTH","EPHEMERIS_TYPE":"0","REV_AT_EPOCH":"4901","RCS_SIZE":"LARGE","MEAN_MOTION":"15.06398057"},{"GP_ID":"196131957","INCLINATION":"53.0549","TIME_SYSTEM":"UTC","LAUNCH_DATE":"2021-04-07","TLE_LINE2":"2 48133  53.0549 343.8184 0001599  64.9842 295.1313 15.06393983 49076","RA_OF_ASC_NODE":"343.8184","MEAN_ELEMENT_THEORY":"SGP4","ARG_OF_PERICENTER":"64.9842","OBJECT_ID":"2021-027AT","BSTAR":"0.00016572000000","FILE":"3302660","SEMIMAJOR_AXIS":"6925.367","OBJECT_NAME":"STARLINK-2475","SITE":"AFETR","COUNTRY_CODE":"US","NORAD_CAT_ID":"48133","ECCENTRICITY":"0.00015990","EPOCH":"2022-02-16T20:39:55.790496","OBJECT_TYPE":"PAYLOAD","REF_FRAME":"TEME","APOAPSIS":"548.339","DECAY_DATE":null,"ELEMENT_SET_NO":"999","MEAN_ANOMALY":"295.1313","PERIOD":"95.593","CLASSIFICATION_TYPE":"U","TLE_LINE1":"1 48133U 21027AT  22047.86106239  .00002187  00000-0  16572-3 0  9993","PERIAPSIS":"546.125","MEAN_MOTION_DOT":"0.00002187","MEAN_MOTION_DDOT":"0.0000000000000","RCS_SIZE":"LARGE","MEAN_MOTION":"15.06393983","REV_AT_EPOCH":"4907","EPHEMERIS_TYPE":"0","CENTER_NAME":"EARTH"},{"TLE_LINE2":"2 48134  53.0551 345.3705 0001510  71.8564 288.2589 15.06394994 49012","LAUNCH_DATE":"2021-04-07","TIME_SYSTEM":"UTC","INCLINATION":"53.0551","GP_ID":"196093859","SEMIMAJOR_AXIS":"6925.364","FILE":"3301890","BSTAR":"0.00005311000000","OBJECT_ID":"2021-027AU","ARG_OF_PERICENTER":"71.8564","MEAN_ELEMENT_THEORY":"SGP4","RA_OF_ASC_NODE":"345.3705","NORAD_CAT_ID":"48134","ECCENTRICITY":"0.00015100","COUNTRY_CODE":"US","SITE":"AFETR","OBJECT_NAME":"STARLINK-2476","ELEMENT_SET_NO":"999","DECAY_DATE":null,"APOAPSIS":"548.275","REF_FRAME":"TEME","OBJECT_TYPE":"PAYLOAD","EPOCH":"2022-02-16T12:21:00.169920","CLASSIFICATION_TYPE":"U","PERIOD":"95.592","MEAN_ANOMALY":"288.2589","MEAN_MOTION_DDOT":"0.0000000000000","MEAN_MOTION_DOT":"0.00000510","PERIAPSIS":"546.183","TLE_LINE1":"1 48134U 21027AU  22047.51458530  .00000510  00000-0  53110-4 0  9998","CENTER_NAME":"EARTH","EPHEMERIS_TYPE":"0","REV_AT_EPOCH":"4901","MEAN_MOTION":"15.06394994","RCS_SIZE":"LARGE"},{"PERIAPSIS":"546.052","MEAN_MOTION_DOT":"0.00004012","MEAN_MOTION_DDOT":"0.0000000000000","TLE_LINE1":"1 48135U 21027AV  22047.56662597  .00004012  00000-0  28814-3 0  9997","EPHEMERIS_TYPE":"0","CENTER_NAME":"EARTH","RCS_SIZE":"LARGE","MEAN_MOTION":"15.06389255","REV_AT_EPOCH":"4855","APOAPSIS":"548.441","DECAY_DATE":null,"ELEMENT_SET_NO":"999","EPOCH":"2022-02-16T13:35:56.483808","OBJECT_TYPE":"PAYLOAD","REF_FRAME":"TEME","PERIOD":"95.593","CLASSIFICATION_TYPE":"U","MEAN_ANOMALY":"285.2058","FILE":"3302235","BSTAR":"0.00028814000000","SEMIMAJOR_AXIS":"6925.381","RA_OF_ASC_NODE":"350.1352","MEAN_ELEMENT_THEORY":"SGP4","ARG_OF_PERICENTER":"74.9122","OBJECT_ID":"2021-027AV","SITE":"AFETR","COUNTRY_CODE":"US","NORAD_CAT_ID":"48135","ECCENTRICITY":"0.00017250","OBJECT_NAME":"STARLINK-2478","INCLINATION":"53.0568","LAUNCH_DATE":"2021-04-07","TIME_SYSTEM":"UTC","TLE_LINE2":"2 48135  53.0568 350.1352 0001725  74.9122 285.2058 15.06389255 48555","GP_ID":"196100200"},{"OBJECT_NAME":"STARLINK-2479","COUNTRY_CODE":"US","SITE":"AFETR","NORAD_CAT_ID":"48136","ECCENTRICITY":"0.00015370","RA_OF_ASC_NODE":"345.2434","MEAN_ELEMENT_THEORY":"SGP4","ARG_OF_PERICENTER":"65.3895","OBJECT_ID":"2021-027AW","BSTAR":"0.00065703000000","FILE":"3301890","SEMIMAJOR_AXIS":"6925.397","GP_ID":"196093356","INCLINATION":"53.0563","TIME_SYSTEM":"UTC","LAUNCH_DATE":"2021-04-07","TLE_LINE2":"2 48136  53.0563 345.2434 0001537  65.3895 294.7254 15.06384139 49021","MEAN_MOTION":"15.06384139","RCS_SIZE":"LARGE","REV_AT_EPOCH":"4902","EPHEMERIS_TYPE":"0","CENTER_NAME":"EARTH","TLE_LINE1":"1 48136U 21027AW  22047.54038115  .00009514  00000-0  65703-3 0  9999","PERIAPSIS":"546.198","MEAN_MOTION_DOT":"0.00009514","MEAN_MOTION_DDOT":"0.0000000000000","MEAN_ANOMALY":"294.7254","PERIOD":"95.593","CLASSIFICATION_TYPE":"U","EPOCH":"2022-02-16T12:58:08.931360","OBJECT_TYPE":"PAYLOAD","REF_FRAME":"TEME","APOAPSIS":"548.327","DECAY_DATE":null,"ELEMENT_SET_NO":"999"},{"PERIOD":"95.592","CLASSIFICATION_TYPE":"U","MEAN_ANOMALY":"296.0206","ELEMENT_SET_NO":"999","APOAPSIS":"548.352","DECAY_DATE":null,"OBJECT_TYPE":"PAYLOAD","REF_FRAME":"TEME","EPOCH":"2022-02-16T12:01:03.491040","CENTER_NAME":"EARTH","EPHEMERIS_TYPE":"0","REV_AT_EPOCH":"4929","MEAN_MOTION":"15.06405342","RCS_SIZE":"LARGE","MEAN_MOTION_DDOT":"0.0000000000000","PERIAPSIS":"546.042","MEAN_MOTION_DOT":"0.00003878","TLE_LINE1":"1 48137U 21027AX  22047.50073485  .00003878  00000-0  27905-3 0  9994","LAUNCH_DATE":"2021-04-07","TIME_SYSTEM":"UTC","TLE_LINE2":"2 48137  53.0555 325.4174 0001668  64.0955 296.0206 15.06405342 49293","INCLINATION":"53.0555","GP_ID":"196093609","NORAD_CAT_ID":"48137","ECCENTRICITY":"0.00016680","SITE":"AFETR","COUNTRY_CODE":"US","OBJECT_NAME":"STARLINK-2480","SEMIMAJOR_AXIS":"6925.332","BSTAR":"0.00027905000000","FILE":"3301890","OBJECT_ID":"2021-027AX","ARG_OF_PERICENTER":"64.0955","RA_OF_ASC_NODE":"325.4174","MEAN_ELEMENT_THEORY":"SGP4"},{"BSTAR":"0.00034117000000","FILE":"3301890","SEMIMAJOR_AXIS":"6925.369","RA_OF_ASC_NODE":"345.3250","MEAN_ELEMENT_THEORY":"SGP4","OBJECT_ID":"2021-027AY","ARG_OF_PERICENTER":"79.4668","COUNTRY_CODE":"US","SITE":"AFETR","ECCENTRICITY":"0.00015750","NORAD_CAT_ID":"48138","OBJECT_NAME":"STARLINK-2481","INCLINATION":"53.0554","LAUNCH_DATE":"2021-04-07","TIME_SYSTEM":"UTC","TLE_LINE2":"2 48138  53.0554 345.3250 0001575  79.4668 280.6498 15.06393488 49027","GP_ID":"196094360","PERIAPSIS":"546.143","MEAN_MOTION_DOT":"0.00004803","MEAN_MOTION_DDOT":"0.0000000000000","TLE_LINE1":"1 48138U 21027AY  22047.52563634  .00004803  00000-0  34117-3 0  9999","EPHEMERIS_TYPE":"0","CENTER_NAME":"EARTH","RCS_SIZE":"LARGE","MEAN_MOTION":"15.06393488","REV_AT_EPOCH":"4902","APOAPSIS":"548.324","DECAY_DATE":null,"ELEMENT_SET_NO":"999","EPOCH":"2022-02-16T12:36:54.979776","OBJECT_TYPE":"PAYLOAD","REF_FRAME":"TEME","PERIOD":"95.593","CLASSIFICATION_TYPE":"U","MEAN_ANOMALY":"280.6498"},{"SEMIMAJOR_AXIS":"6925.336","FILE":"3302660","BSTAR":"0.00026755000000","OBJECT_ID":"2021-027AZ","ARG_OF_PERICENTER":"75.5044","MEAN_ELEMENT_THEORY":"SGP4","RA_OF_ASC_NODE":"323.5617","NORAD_CAT_ID":"48139","ECCENTRICITY":"0.00016590","SITE":"AFETR","COUNTRY_CODE":"US","OBJECT_NAME":"STARLINK-2482","TLE_LINE2":"2 48139  53.0557 323.5617 0001659  75.5044 284.6129 15.06404029 49360","LAUNCH_DATE":"2021-04-07","TIME_SYSTEM":"UTC","INCLINATION":"53.0557","GP_ID":"196130956","MEAN_MOTION_DDOT":"0.0000000000000","MEAN_MOTION_DOT":"0.00003706","PERIAPSIS":"546.052","TLE_LINE1":"1 48139U 21027AZ  22047.91451138  .00003706  00000-0  26755-3 0  9998","CENTER_NAME":"EARTH","EPHEMERIS_TYPE":"0","REV_AT_EPOCH":"4936","MEAN_MOTION":"15.06404029","RCS_SIZE":"LARGE","ELEMENT_SET_NO":"999","DECAY_DATE":null,"APOAPSIS":"548.350","REF_FRAME":"TEME","OBJECT_TYPE":"PAYLOAD","EPOCH":"2022-02-16T21:56:53.783232","CLASSIFICATION_TYPE":"U","PERIOD":"95.592","MEAN_ANOMALY":"284.6129"},{"REV_AT_EPOCH":"4902","MEAN_MOTION":"15.06388935","RCS_SIZE":"LARGE","CENTER_NAME":"EARTH","EPHEMERIS_TYPE":"0","TLE_LINE1":"1 48140U 21027BA  22047.55049978 -.00000667  00000-0 -25900-4 0  9992","MEAN_MOTION_DDOT":"0.0000000000000","MEAN_MOTION_DOT":"-0.00000667","PERIAPSIS":"546.165","MEAN_ANOMALY":"286.8783","CLASSIFICATION_TYPE":"U","PERIOD":"95.593","REF_FRAME":"TEME","OBJECT_TYPE":"PAYLOAD","EPOCH":"2022-02-16T13:12:43.180992","ELEMENT_SET_NO":"999","DECAY_DATE":null,"APOAPSIS":"548.330","OBJECT_NAME":"STARLINK-2483","NORAD_CAT_ID":"48140","ECCENTRICITY":"0.00015630","SITE":"AFETR","COUNTRY_CODE":"US","OBJECT_ID":"2021-027BA","ARG_OF_PERICENTER":"73.2378","MEAN_ELEMENT_THEORY":"SGP4","RA_OF_ASC_NODE":"345.2017","SEMIMAJOR_AXIS":"6925.382","BSTAR":"-0.00002590000000","FILE":"3301890","GP_ID":"196092856","TLE_LINE2":"2 48140  53.0564 345.2017 0001563  73.2378 286.8783 15.06388935 49024","TIME_SYSTEM":"UTC","LAUNCH_DATE":"2021-04-07","INCLINATION":"53.0564"}];
